{
  "type": "FeatureCollection",
  "features": [
    {
      "type": "Feature",
      "properties": {
        "norad_id": 43246,
        "name": "BEIDOU-3 M10 (C30)",
        "group": "gnss",
        "lat": -32.74164637427582,
        "lon": 153.63195556999784,
        "alt_km": 21541.582669512965,
        "timestamp": "2025-12-20T22:39:10.872962+00:00",
        "meta_object_name": "BEIDOU-3 M10 (C30)",
        "meta_object_id": "2018-029B",
        "meta_epoch": "2025-12-20T01:49:46.851744",
        "meta_mean_motion": 1.86229182,
        "meta_eccentricity": 0.00042418,
        "meta_inclination": 54.356,
        "meta_ra_of_asc_node": 306.2386,
        "meta_arg_of_pericenter": 3.4474,
        "meta_mean_anomaly": 356.548,
        "meta_ephemeris_type": 0,
        "meta_classification_type": "U",
        "meta_norad_cat_id": 43246,
        "meta_element_set_no": 999,
        "meta_rev_at_epoch": 5254,
        "meta_bstar": 0,
        "meta_mean_motion_dot": -7e-07,
        "meta_mean_motion_ddot": 0,
        "tle_line1": "1 43246U 18029B   25354.07623671 -.00000070  00000+0  00000+0 0  9996",
        "tle_line2": "2 43246  54.3560 306.2386 0004241   3.4474 356.5480  1.86229182 52541"
      },
      "geometry": {
        "type": "Point",
        "coordinates": [
          153.63195556999784,
          -32.74164637427582
        ]
      }
    },
    {
      "type": "Feature",
      "properties": {
        "norad_id": 43286,
        "name": "IRNSS-1I",
        "group": "gnss",
        "lat": 21.0616753280018,
        "lon": 120.51621796506936,
        "alt_km": 35848.34513762087,
        "timestamp": "2025-12-20T22:39:10.872972+00:00",
        "meta_object_name": "IRNSS-1I",
        "meta_object_id": "2018-035A",
        "meta_epoch": "2025-12-14T19:56:38.641056",
        "meta_mean_motion": 1.00272129,
        "meta_eccentricity": 0.00217173,
        "meta_inclination": 29.1546,
        "meta_ra_of_asc_node": 77.0653,
        "meta_arg_of_pericenter": 182.6132,
        "meta_mean_anomaly": 178.227,
        "meta_ephemeris_type": 0,
        "meta_classification_type": "U",
        "meta_norad_cat_id": 43286,
        "meta_element_set_no": 999,
        "meta_rev_at_epoch": 2823,
        "meta_bstar": 0,
        "meta_mean_motion_dot": 8.4e-07,
        "meta_mean_motion_ddot": 0,
        "tle_line1": "1 43286U 18035A   25348.83100279  .00000084  00000+0  00000+0 0  9992",
        "tle_line2": "2 43286  29.1546  77.0653 0021717 182.6132 178.2270  1.00272129 28237"
      },
      "geometry": {
        "type": "Point",
        "coordinates": [
          120.51621796506936,
          21.0616753280018
        ]
      }
    },
    {
      "type": "Feature",
      "properties": {
        "norad_id": 43508,
        "name": "COSMOS 2527 (756)",
        "group": "gnss",
        "lat": 38.54305619654428,
        "lon": -121.4163342082363,
        "alt_km": 19125.39813302113,
        "timestamp": "2025-12-20T22:39:10.872988+00:00",
        "meta_object_name": "COSMOS 2527 (756)",
        "meta_object_id": "2018-053A",
        "meta_epoch": "2025-12-18T21:19:14.310912",
        "meta_mean_motion": 2.13102316,
        "meta_eccentricity": 0.0008836,
        "meta_inclination": 65.4759,
        "meta_ra_of_asc_node": 79.9259,
        "meta_arg_of_pericenter": 226.7635,
        "meta_mean_anomaly": 133.1863,
        "meta_ephemeris_type": 0,
        "meta_classification_type": "U",
        "meta_norad_cat_id": 43508,
        "meta_element_set_no": 999,
        "meta_rev_at_epoch": 5843,
        "meta_bstar": 0,
        "meta_mean_motion_dot": -3.3e-07,
        "meta_mean_motion_ddot": 0,
        "tle_line1": "1 43508U 18053A   25352.88836008 -.00000033  00000+0  00000+0 0  9990",
        "tle_line2": "2 43508  65.4759  79.9259 0008836 226.7635 133.1863  2.13102316 58439"
      },
      "geometry": {
        "type": "Point",
        "coordinates": [
          -121.4163342082363,
          38.54305619654428
        ]
      }
    },
    {
      "type": "Feature",
      "properties": {
        "norad_id": 43539,
        "name": "BEIDOU-2 IGSO-7 (C16)",
        "group": "gnss",
        "lat": 13.114489053524439,
        "lon": 173.9330004644904,
        "alt_km": 36091.00088583383,
        "timestamp": "2025-12-20T22:39:10.873003+00:00",
        "meta_object_name": "BEIDOU-2 IGSO-7 (C16)",
        "meta_object_id": "2018-057A",
        "meta_epoch": "2025-12-15T07:47:07.120608",
        "meta_mean_motion": 1.00256546,
        "meta_eccentricity": 0.00926218,
        "meta_inclination": 55.1766,
        "meta_ra_of_asc_node": 164.6485,
        "meta_arg_of_pericenter": 235.2644,
        "meta_mean_anomaly": 271.8458,
        "meta_ephemeris_type": 0,
        "meta_classification_type": "U",
        "meta_norad_cat_id": 43539,
        "meta_element_set_no": 999,
        "meta_rev_at_epoch": 2728,
        "meta_bstar": 0,
        "meta_mean_motion_dot": -2.3e-07,
        "meta_mean_motion_ddot": 0,
        "tle_line1": "1 43539U 18057A   25349.32438797 -.00000023  00000+0  00000+0 0  9995",
        "tle_line2": "2 43539  55.1766 164.6485 0092621 235.2644 271.8458  1.00256546 27289"
      },
      "geometry": {
        "type": "Point",
        "coordinates": [
          173.9330004644904,
          13.114489053524439
        ]
      }
    },
    {
      "type": "Feature",
      "properties": {
        "norad_id": 43564,
        "name": "GSAT0221 (GALILEO 25)",
        "group": "gnss",
        "lat": 44.66413065938216,
        "lon": 127.03260621985672,
        "alt_km": 23235.671463565486,
        "timestamp": "2025-12-20T22:39:10.873016+00:00",
        "meta_object_name": "GSAT0221 (GALILEO 25)",
        "meta_object_id": "2018-060A",
        "meta_epoch": "2025-12-19T13:40:28.820064",
        "meta_mean_motion": 1.70475889,
        "meta_eccentricity": 0.0006721,
        "meta_inclination": 57.2264,
        "meta_ra_of_asc_node": 346.6332,
        "meta_arg_of_pericenter": 285.6827,
        "meta_mean_anomaly": 74.2548,
        "meta_ephemeris_type": 0,
        "meta_classification_type": "U",
        "meta_norad_cat_id": 43564,
        "meta_element_set_no": 999,
        "meta_rev_at_epoch": 4610,
        "meta_bstar": 0,
        "meta_mean_motion_dot": -7.2e-07,
        "meta_mean_motion_ddot": 0,
        "tle_line1": "1 43564U 18060A   25353.56977801 -.00000072  00000+0  00000+0 0  9996",
        "tle_line2": "2 43564  57.2264 346.6332 0006721 285.6827  74.2548  1.70475889 46101"
      },
      "geometry": {
        "type": "Point",
        "coordinates": [
          127.03260621985672,
          44.66413065938216
        ]
      }
    },
    {
      "type": "Feature",
      "properties": {
        "norad_id": 43565,
        "name": "GSAT0222 (GALILEO 26)",
        "group": "gnss",
        "lat": -9.483325105618313,
        "lon": -19.58831423584527,
        "alt_km": 23221.365924882117,
        "timestamp": "2025-12-20T22:39:10.873026+00:00",
        "meta_object_name": "GSAT0222 (GALILEO 26)",
        "meta_object_id": "2018-060B",
        "meta_epoch": "2025-12-18T00:42:17.845344",
        "meta_mean_motion": 1.70475645,
        "meta_eccentricity": 0.00060883,
        "meta_inclination": 57.23,
        "meta_ra_of_asc_node": 346.6777,
        "meta_arg_of_pericenter": 265.4214,
        "meta_mean_anomaly": 94.5238,
        "meta_ephemeris_type": 0,
        "meta_classification_type": "U",
        "meta_norad_cat_id": 43565,
        "meta_element_set_no": 999,
        "meta_rev_at_epoch": 4612,
        "meta_bstar": 0,
        "meta_mean_motion_dot": -7.6e-07,
        "meta_mean_motion_ddot": 0,
        "tle_line1": "1 43565U 18060B   25352.02937321 -.00000076  00000+0  00000+0 0  9994",
        "tle_line2": "2 43565  57.2300 346.6777 0006088 265.4214  94.5238  1.70475645 46121"
      },
      "geometry": {
        "type": "Point",
        "coordinates": [
          -19.58831423584527,
          -9.483325105618313
        ]
      }
    },
    {
      "type": "Feature",
      "properties": {
        "norad_id": 43566,
        "name": "GSAT0219 (GALILEO 23)",
        "group": "gnss",
        "lat": -27.166686026650595,
        "lon": -174.10206454607857,
        "alt_km": 23221.604893327367,
        "timestamp": "2025-12-20T22:39:10.873036+00:00",
        "meta_object_name": "GSAT0219 (GALILEO 23)",
        "meta_object_id": "2018-060C",
        "meta_epoch": "2025-12-18T20:05:25.027008",
        "meta_mean_motion": 1.70475846,
        "meta_eccentricity": 0.00058667,
        "meta_inclination": 57.2292,
        "meta_ra_of_asc_node": 346.6575,
        "meta_arg_of_pericenter": 289.8664,
        "meta_mean_anomaly": 70.0835,
        "meta_ephemeris_type": 0,
        "meta_classification_type": "U",
        "meta_norad_cat_id": 43566,
        "meta_element_set_no": 999,
        "meta_rev_at_epoch": 4611,
        "meta_bstar": 0,
        "meta_mean_motion_dot": -7.4e-07,
        "meta_mean_motion_ddot": 0,
        "tle_line1": "1 43566U 18060C   25352.83709522 -.00000074  00000+0  00000+0 0  9992",
        "tle_line2": "2 43566  57.2292 346.6575 0005866 289.8664  70.0835  1.70475846 46114"
      },
      "geometry": {
        "type": "Point",
        "coordinates": [
          -174.10206454607857,
          -27.166686026650595
        ]
      }
    }
  ]
}